1 43013U 17073A   24035.86217735  .00000126  00000-0  80368-4 0  9990
2 43013  98.7367 335.8403 0001157 115.1763 244.9533 14.19541299321985
